{
  "norad_id": 60063,
  "name": "STARLINK-11165 [DTC]",
  "history": [
    {
      "epoch": "2026-03-28T17:37:05.304288Z",
      "apogee_km": 360.67184623426056,
      "perigee_km": 358.84210374641225,
      "latitude_deg": -3.181862174991314e-05,
      "longitude_deg": 6.81038793063077,
      "height_km": 360.6954179980243,
      "semi_major_axis_km": 6737.893974990337,
      "eccentricity": 0.00013578,
      "inclination_deg": 53.1591,
      "raan_deg": 97.2328,
      "arg_perigee_deg": 91.5805,
      "mean_anomaly_deg": 268.5368,
      "mean_motion_rev_day": 15.69699438
    }
  ]
}